[{"OBJECT_NAME":"STARLINK-4012","OBJECT_ID":"2022-052E","EPOCH":"2026-03-09T17:30:20.271456","MEAN_MOTION":15.08835354,"ECCENTRICITY":0.00019429,"INCLINATION":53.2173,"RA_OF_ASC_NODE":278.9389,"ARG_OF_PERICENTER":125.8751,"MEAN_ANOMALY":234.2422,"EPHEMERIS_TYPE":0,"CLASSIFICATION_TYPE":"U","NORAD_CAT_ID":52602,"ELEMENT_SET_NO":999,"REV_AT_EPOCH":21166,"BSTAR":0.00030722261,"MEAN_MOTION_DOT":4.604e-5,"MEAN_MOTION_DDOT":0},{"OBJECT_NAME":"QPS-SAR-7 (TSUKUYOMI-II)","OBJECT_ID":"2024-066F","EPOCH":"2026-03-09T22:44:25.024704","MEAN_MOTION":15.07520552,"ECCENTRICITY":3.06e-5,"INCLINATION":45.6053,"RA_OF_ASC_NODE":45.6252,"ARG_OF_PERICENTER":310.671,"MEAN_ANOMALY":49.4148,"EPHEMERIS_TYPE":0,"CLASSIFICATION_TYPE":"U","NORAD_CAT_ID":59447,"ELEMENT_SET_NO":999,"REV_AT_EPOCH":10524,"BSTAR":0.00063712098,"MEAN_MOTION_DOT":9.59e-5,"MEAN_MOTION_DDOT":0}]
